EUTELSAT 8 WEST B       
1 40875U 15039B   25239.38420258 -.00000067  00000+0  00000+0 0  9997
2 40875   0.0667 359.5221 0003703 156.7606 309.8967  1.00271381 36718
EUTELSAT 9B             
1 41310U 16005A   25239.38933745  .00000060  00000+0  00000+0 0  9998
2 41310   0.0348  69.7358 0001662 117.2380 298.0290  1.00272141 35175
EUTELSAT 65 WEST A      
1 41382U 16014A   25239.51561155 -.00000277  00000+0  00000+0 0  9995
2 41382   0.0541 355.9953 0002290 157.4460 302.9680  1.00272006 34596
EUTELSAT 117 WEST B     
1 41589U 16038B   25239.50655917 -.00000013  00000+0  00000+0 0  9997
2 41589   0.0089 276.9615 0000114  23.9748 100.4183  1.00269287 33717
EUTELSAT 172B           
1 42741U 17029B   25239.63114501 -.00000006  00000+0  00000+0 0  9994
2 42741   0.0168 155.0515 0000268 279.0278 301.2316  1.00273020 30787
EUTELSAT 7C             
1 44334U 19034B   25239.31582228  .00000046  00000+0  00000+0 0  9995
2 44334   0.0730 188.3447 0003158 312.8414 315.2983  1.00270323  3883
EUTELSAT 5 WEST B       
1 44624U 19067A   25239.38480925 -.00000044  00000+0  00000+0 0  9990
2 44624   0.1156 301.2886 0003118 216.9508 311.1273  1.00273396 21492
EUTELSAT KONNECT        
1 45027U 20005B   25239.38933745  .00000048  00000+0  00000+0 0  9998
2 45027   0.0639 101.0591 0001457  63.6101 318.5547  1.00269594 21382
